AII-BRAVO               
1 48270U 21034C   26068.69561509  .00006142  00000+0  46527-3 0  9993
2 48270  97.5758 125.8704 0005372 233.3237 126.7495 15.02621336264679
STARLINK-34570          
1 64860U 25152U   26068.55415752  .00003018  00000+0  21330-3 0  9998
2 64860  97.6024 285.3323 0001605  87.4298 272.7113 15.05651495 35394
